#aV2006  3 19  0  0   .00000000      96 DD+AD WGS84 FIT  NGA
## 1367       .00000000   900.00000000 53813  .0000000000000
+   29     1  2  3  4  5  6  7  8  9 10 11 13 14 15 16 17 18
+         19 20 21 22 23 24 25 26 27 28 29 30  0  0  0  0  0
+          0  0  0  0  0  0  0  0  0  0  0  0  0  0  0  0  0
+          0  0  0  0  0  0  0  0  0  0  0  0  0  0  0  0  0
+          0  0  0  0  0  0  0  0  0  0  0  0  0  0  0  0  0
++         0  0  0  0  0  0  0  0  0  0  0  0  0  0  0  0  0
++         0  0  0  0  0  0  0  0  0  0  0  0  0  0  0  0  0
++         0  0  0  0  0  0  0  0  0  0  0  0  0  0  0  0  0
++         0  0  0  0  0  0  0  0  0  0  0  0  0  0  0  0  0
++         0  0  0  0  0  0  0  0  0  0  0  0  0  0  0  0  0
%c cc cc ccc ccc cccc cccc cccc cccc ccccc ccccc ccccc ccccc
%c cc cc ccc ccc cccc cccc cccc cccc ccccc ccccc ccccc ccccc
%f  0.0000000  0.000000000  0.00000000000  0.000000000000000
%f  0.0000000  0.000000000  0.00000000000  0.000000000000000
%i    0    0    0    0      0      0      0      0         0
%i    0    0    0    0      0      0      0      0         0
/*      NGA, ST. LOUIS,MO.                                  
/*   EPHEMERIS COMPUTED FROM  3 DAYS OF DATA                
/* CCCCCCCCCCCCCCCCCCCCCCCCCCCCCCCCCCCCCCCCCCCCCCCCCCCCCCCCC
/* CCCCCCCCCCCCCCCCCCCCCCCCCCCCCCCCCCCCCCCCCCCCCCCCCCCCCCCCC
*  2006  3 19 23 45   .00000000                                                 
P  1 -21034.495859 -16129.905144   2205.858077     42.342589                    
V  1   3186.509454   -147.559018  32143.893173       .019586                    
P  2  12938.566763  14023.323776 -18822.899265    -13.653512                    
V  2  -2257.986651  23240.992654  15812.495102       .018964                    
P  3 -24289.269493 -11002.535702   1638.061539     83.236528                    
V  3   -369.868947  -4255.820260 -30696.401965       .030233                    
P  4   7478.454476  22207.800535 -12189.655064    181.654847                    
V  4  -3721.468108  15397.672818  26190.301120       .107200                    
P  5  22684.188421 -13587.969524    970.288123   -320.824719                    
V  5    743.101274   3908.881429  31312.693070       .765650                    
P  6   8961.526011 -12924.210943 -21212.357191    414.519295                    
V  6  23657.986318  14001.118756   1372.130382       .280448                    
P  7   6520.192070 -14207.535315 -21158.599866    516.051281                    
V  7  24412.744880  13168.954520  -1451.188031       .062021                    
P  8    486.389919  26056.939148   3693.284634    -59.977088                    
V  8  -3166.093876   4684.390827 -31799.903593      -.011000                    
P  9  14101.628511  -8788.148696  20117.209813     12.553582                    
V  9   1222.194483  26839.777055  10871.496778       .015536                    
P 10  21335.014549   1485.353632 -16040.452437     80.442870                    
V 10 -17292.359295  10234.680778 -21870.442466       .005972                    
P 11 -14484.777266  10579.637549  19461.269789    314.664377                    
V 11  -4394.604796 -24867.222898  10460.524899       .026705                    
P 13  -6754.310604  12980.783275 -22245.499517     48.614671                    
V 13 -23364.676461 -15370.622837  -1822.134799       .026255                    
P 14 -11367.638548 -18976.501526  14801.657025    -17.533026                    
V 14  16438.827671   8843.599058  24029.948962       .006895                    
P 15    641.069269 -26116.908393   3278.938720    582.995119                    
V 15   3721.623280  -4024.141673 -31562.272148       .058680                    
P 16 -16594.687848  -6754.245870 -19552.548606     32.039150                    
V 16  21642.018534 -12529.242496 -13884.613404       .020377                    
P 17  10016.688614  19113.954440  15524.384491     70.595599                    
V 17 -17717.009257  -8852.813136  22218.459172       .059026                    
P 18  13110.493621 -17661.358623  14767.994626   -226.588524                    
V 18  17893.974284  -5928.286827 -23412.766338      -.019662                    
P 19 -22185.358907  -3515.981183  14303.783120    -18.330273                    
V 19 -13388.686042 -12188.072349 -23896.870827       .012588                    
P 20 -23367.277017  12586.734864      8.718561    -30.320112                    
V 20  -1286.350684  -2636.833424  31722.992153       .007870                    
P 21   6018.958558 -24947.824821  -5643.951720     14.737710                    
V 21   3106.915171   7607.999514 -30588.192000       .030736                    
P 22   -809.040601 -16135.713821  21235.861262     77.617760                    
V 22  24436.721197 -10585.508177  -7163.805418       .034387                    
P 23 -17779.877967   4572.946389 -19338.349338    146.627715                    
V 23 -19992.868319 -13846.399245  15027.709080      -.012471                    
P 24  -3012.205791  26240.996987    948.016510     94.087686                    
V 24  -2945.023376  -1196.885018  31884.533744       .029879                    
P 25 -10646.584866 -19954.220388 -13425.118271    -16.705138                    
V 25   1634.591364 -17900.533375  24692.874734       .199484                    
P 26  23452.498739   7312.655335  10455.077338    -63.991162                    
V 26  10602.759711   8622.372452 -28209.058038      -.097562                    
P 27  -3625.019821  25287.993976  -5966.695168     40.574835                    
V 27  -3406.257589  -8355.209081 -30658.014189       .017405                    
P 28  -2358.848714  17132.378368  20339.933062     31.167651                    
V 28 -23121.767256  10367.044767 -11914.826802      -.007643                    
P 29  24075.479296   8960.931273   7518.917308    564.941548                    
V 29   6922.191137   6165.426425 -30245.818869       .099579                    
P 30  17917.334774 -17585.977709  -8768.558731     11.954564                    
V 30  10914.242064  -2704.238509  28745.871451       .609145                    
EOF
